{"type": "FeatureCollection", "features": [ {"type": "Feature", "properties": {"norad_id": 43437, "name": "SENTINEL-3B", "group": "resource", "lat": -63.23865031797421, "lon": 75.07463818321742, "alt_km": 810.920592227204, "timestamp": "2025-12-18T10:51:25.446841+00:00", "meta": {"OBJECT_NAME": "SENTINEL-3B", "OBJECT_ID": "2018-039A", "EPOCH": "2025-12-17T18:19:41.265120", "MEAN_MOTION": 14.26735912, "ECCENTRICITY": 0.00016261, "INCLINATION": 98.6263, "RA_OF_ASC_NODE": 56.8769, "ARG_OF_PERICENTER": 96.5955, "MEAN_ANOMALY": 263.5411, "EPHEMERIS_TYPE": 0, "CLASSIFICATION_TYPE": "U", "NORAD_CAT_ID": 43437, "ELEMENT_SET_NO": 999, "REV_AT_EPOCH": 39825, "BSTAR": 6.7233445e-05, "MEAN_MOTION_DOT": 1.19e-06, "MEAN_MOTION_DDOT": 0}, "tle": {"line1": "1 43437U 18039A   25351.76367205  .00000119  00000+0  67233-4 0  9999", "line2": "2 43437  98.6263  56.8769 0001626  96.5955 263.5411 14.26735912398251"}}, "geometry": {"type": "Point", "coordinates": [75.07463818321742, -63.23865031797421]}}, {"type": "Feature", "properties": {"norad_id": 43461, "name": "GAOFEN-5 01", "group": "resource", "lat": -73.85800893470943, "lon": 104.68364906085894, "alt_km": 698.8725239703126, "timestamp": "2025-12-18T10:51:25.446851+00:00", "meta": {"OBJECT_NAME": "GAOFEN-5 01", "OBJECT_ID": "2018-043A", "EPOCH": "2025-12-17T18:53:18.600576", "MEAN_MOTION": 14.60415253, "ECCENTRICITY": 6.536e-05, "INCLINATION": 98.4331, "RA_OF_ASC_NODE": 314.8425, "ARG_OF_PERICENTER": 314.2673, "MEAN_ANOMALY": 45.8473, "EPHEMERIS_TYPE": 0, "CLASSIFICATION_TYPE": "U", "NORAD_CAT_ID": 43461, "ELEMENT_SET_NO": 999, "REV_AT_EPOCH": 40521, "BSTAR": 8.6212059e-05, "MEAN_MOTION_DOT": 3.69e-06, "MEAN_MOTION_DDOT": 0}, "tle": {"line1": "1 43461U 18043A   25351.78702084  .00000369  00000+0  86212-4 0  9996", "line2": "2 43461  98.4331 314.8425 0000653 314.2673  45.8473 14.60415253405219"}}, "geometry": {"type": "Point", "coordinates": [104.68364906085894, -73.85800893470943]}}, {"type": "Feature", "properties": {"norad_id": 43484, "name": "GAOFEN-6", "group": "resource", "lat": -42.769017654956976, "lon": -130.75971368372765, "alt_km": 655.9170573394458, "timestamp": "2025-12-18T10:51:25.446861+00:00", "meta": {"OBJECT_NAME": "GAOFEN-6", "OBJECT_ID": "2018-048A", "EPOCH": "2025-12-17T22:27:55.139040", "MEAN_MOTION": 14.76574362, "ECCENTRICITY": 0.00129929, "INCLINATION": 97.8031, "RA_OF_ASC_NODE": 56.0287, "ARG_OF_PERICENTER": 48.344, "MEAN_ANOMALY": 311.888, "EPHEMERIS_TYPE": 0, "CLASSIFICATION_TYPE": "U", "NORAD_CAT_ID": 43484, "ELEMENT_SET_NO": 999, "REV_AT_EPOCH": 40664, "BSTAR": 5.9793256e-05, "MEAN_MOTION_DOT": 3.68e-06, "MEAN_MOTION_DDOT": 0}, "tle": {"line1": "1 43484U 18048A   25351.93605485  .00000368  00000+0  59793-4 0  9993", "line2": "2 43484  97.8031  56.0287 0012992  48.3440 311.8880 14.76574362406641"}}, "geometry": {"type": "Point", "coordinates": [-130.75971368372765, -42.769017654956976]}}, {"type": "Feature", "properties": {"norad_id": 43585, "name": "GAOFEN-11 01", "group": "resource", "lat": 79.98722075234798, "lon": 9.972082077896774, "alt_km": 413.74670472506205, "timestamp": "2025-12-18T10:51:25.446872+00:00", "meta": {"OBJECT_NAME": "GAOFEN-11 01", "OBJECT_ID": "2018-063A", "EPOCH": "2025-12-17T23:38:59.432640", "MEAN_MOTION": 15.49362625, "ECCENTRICITY": 0.00040353, "INCLINATION": 97.1562, "RA_OF_ASC_NODE": 54.8763, "ARG_OF_PERICENTER": 286.2168, "MEAN_ANOMALY": 73.864, "EPHEMERIS_TYPE": 0, "CLASSIFICATION_TYPE": "U", "NORAD_CAT_ID": 43585, "ELEMENT_SET_NO": 999, "REV_AT_EPOCH": 41223, "BSTAR": 0.00019137757, "MEAN_MOTION_DOT": 0.000104, "MEAN_MOTION_DDOT": 0}, "tle": {"line1": "1 43585U 18063A   25351.98541010  .00010400  00000+0  19138-3 0  9996", "line2": "2 43585  97.1562  54.8763 0004035 286.2168  73.8640 15.49362625412238"}}, "geometry": {"type": "Point", "coordinates": [9.972082077896774, 79.98722075234798]}}, {"type": "Feature", "properties": {"norad_id": 43613, "name": "ICESAT-2", "group": "resource", "lat": 73.91179834231977, "lon": 69.25625386847855, "alt_km": 472.207785466273, "timestamp": "2025-12-18T10:51:25.446882+00:00", "meta": {"OBJECT_NAME": "ICESAT-2", "OBJECT_ID": "2018-070A", "EPOCH": "2025-12-17T21:49:24.175776", "MEAN_MOTION": 15.28281091, "ECCENTRICITY": 0.00027717, "INCLINATION": 92.0052, "RA_OF_ASC_NODE": 242.1322, "ARG_OF_PERICENTER": 130.1502, "MEAN_ANOMALY": 229.999, "EPHEMERIS_TYPE": 0, "CLASSIFICATION_TYPE": "U", "NORAD_CAT_ID": 43613, "ELEMENT_SET_NO": 999, "REV_AT_EPOCH": 40477, "BSTAR": 0.00037799007, "MEAN_MOTION_DOT": 0.00010412, "MEAN_MOTION_DDOT": 0}, "tle": {"line1": "1 43613U 18070A   25351.90930759  .00010412  00000+0  37799-3 0  9996", "line2": "2 43613  92.0052 242.1322 0002771 130.1502 229.9990 15.28281091404771"}}, "geometry": {"type": "Point", "coordinates": [69.25625386847855, 73.91179834231977]}}, {"type": "Feature", "properties": {"norad_id": 43719, "name": "HYSIS", "group": "resource", "lat": -57.83390251218046, "lon": 68.34033075424217, "alt_km": 640.9186675981282, "timestamp": "2025-12-18T10:51:25.446892+00:00", "meta": {"OBJECT_NAME": "HYSIS", "OBJECT_ID": "2018-096A", "EPOCH": "2025-12-17T23:45:13.552416", "MEAN_MOTION": 14.78658145, "ECCENTRICITY": 0.0001166, "INCLINATION": 98.0098, "RA_OF_ASC_NODE": 54.942, "ARG_OF_PERICENTER": 50.8058, "MEAN_ANOMALY": 309.3256, "EPHEMERIS_TYPE": 0, "CLASSIFICATION_TYPE": "U", "NORAD_CAT_ID": 43719, "ELEMENT_SET_NO": 999, "REV_AT_EPOCH": 38064, "BSTAR": 9.0317072e-05, "MEAN_MOTION_DOT": 6.1e-06, "MEAN_MOTION_DDOT": 0}, "tle": {"line1": "1 43719U 18096A   25351.98974019  .00000610  00000+0  90317-4 0  9991", "line2": "2 43719  98.0098  54.9420 0001166  50.8058 309.3256 14.78658145380642"}}, "geometry": {"type": "Point", "coordinates": [68.34033075424217, -57.83390251218046]}}, {"type": "Feature", "properties": {"norad_id": 43783, "name": "KAZSTSAT", "group": "resource", "lat": -61.55163376550273, "lon": -166.5924442951984, "alt_km": 574.2092556348698, "timestamp": "2025-12-18T10:51:25.446902+00:00", "meta": {"OBJECT_NAME": "KAZSTSAT", "OBJECT_ID": "2018-099AB", "EPOCH": "2025-12-17T16:09:36.328896", "MEAN_MOTION": 14.99362131, "ECCENTRICITY": 0.00059123, "INCLINATION": 97.4541, "RA_OF_ASC_NODE": 26.6464, "ARG_OF_PERICENTER": 308.3167, "MEAN_ANOMALY": 51.7525, "EPHEMERIS_TYPE": 0, "CLASSIFICATION_TYPE": "U", "NORAD_CAT_ID": 43783, "ELEMENT_SET_NO": 999, "REV_AT_EPOCH": 38410, "BSTAR": 4.6014093e-05, "MEAN_MOTION_DOT": 5.07e-06, "MEAN_MOTION_DDOT": 0}, "tle": {"line1": "1 43783U 18099AB  25351.67333714  .00000507  00000+0  46014-4 0  9992", "line2": "2 43783  97.4541  26.6464 0005912 308.3167  51.7525 14.99362131384100"}}, "geometry": {"type": "Point", "coordinates": [-166.5924442951984, -61.55163376550273]}}, {"type": "Feature", "properties": {"norad_id": 43831, "name": "SAUDISAT 5A", "group": "resource", "lat": 62.979028682890785, "lon": -112.8354851833623, "alt_km": 478.24569663516195, "timestamp": "2025-12-18T10:51:25.446912+00:00", "meta": {"OBJECT_NAME": "SAUDISAT 5A", "OBJECT_ID": "2018-102A", "EPOCH": "2025-12-17T23:19:58.899072", "MEAN_MOTION": 15.25720848, "ECCENTRICITY": 0.00115318, "INCLINATION": 97.3352, "RA_OF_ASC_NODE": 52.0627, "ARG_OF_PERICENTER": 60.1708, "MEAN_ANOMALY": 300.0675, "EPHEMERIS_TYPE": 0, "CLASSIFICATION_TYPE": "U", "NORAD_CAT_ID": 43831, "ELEMENT_SET_NO": 999, "REV_AT_EPOCH": 38802, "BSTAR": 0.00020517373, "MEAN_MOTION_DOT": 5.169e-05, "MEAN_MOTION_DDOT": 0}, "tle": {"line1": "1 43831U 18102A   25351.97220948  .00005169  00000+0  20517-3 0  9996", "line2": "2 43831  97.3352  52.0627 0011531  60.1708 300.0675 15.25720848388029"}}, "geometry": {"type": "Point", "coordinates": [-112.8354851833623, 62.979028682890785]}}, {"type": "Feature", "properties": {"norad_id": 43833, "name": "SAUDISAT 5B", "group": "resource", "lat": 4.344555163318063, "lon": -124.15605683474939, "alt_km": 493.6137980272433, "timestamp": "2025-12-18T10:51:25.446923+00:00", "meta": {"OBJECT_NAME": "SAUDISAT 5B", "OBJECT_ID": "2018-102C", "EPOCH": "2025-12-17T23:04:32.969280", "MEAN_MOTION": 15.26070728, "ECCENTRICITY": 0.00122722, "INCLINATION": 97.3448, "RA_OF_ASC_NODE": 54.8001, "ARG_OF_PERICENTER": 62.3242, "MEAN_ANOMALY": 297.924, "EPHEMERIS_TYPE": 0, "CLASSIFICATION_TYPE": "U", "NORAD_CAT_ID": 43833, "ELEMENT_SET_NO": 999, "REV_AT_EPOCH": 38813, "BSTAR": 0.00018942581, "MEAN_MOTION_DOT": 4.818e-05, "MEAN_MOTION_DDOT": 0}, "tle": {"line1": "1 43833U 18102C   25351.96149270  .00004818  00000+0  18943-3 0  9995", "line2": "2 43833  97.3448  54.8001 0012272  62.3242 297.9240 15.26070728388133"}}, "geometry": {"type": "Point", "coordinates": [-124.15605683474939, 4.344555163318063]}}, {"type": "Feature", "properties": {"norad_id": 44622, "name": "GAOFEN-10R", "group": "resource", "lat": -48.586395273883674, "lon": -50.81116169835215, "alt_km": 625.9119285965926, "timestamp": "2025-12-18T10:51:25.446944+00:00", "meta": {"OBJECT_NAME": "GAOFEN-10R", "OBJECT_ID": "2019-066A", "EPOCH": "2025-12-17T23:44:30.427584", "MEAN_MOTION": 14.82809676, "ECCENTRICITY": 0.00075275, "INCLINATION": 98.0284, "RA_OF_ASC_NODE": 299.516, "ARG_OF_PERICENTER": 26.7512, "MEAN_ANOMALY": 333.4088, "EPHEMERIS_TYPE": 0, "CLASSIFICATION_TYPE": "U", "NORAD_CAT_ID": 44622, "ELEMENT_SET_NO": 999, "REV_AT_EPOCH": 33552, "BSTAR": 0.00016489695, "MEAN_MOTION_DOT": 1.28e-05, "MEAN_MOTION_DDOT": 0}, "tle": {"line1": "1 44622U 19066A   25351.98924106  .00001280  00000+0  16490-3 0  9998", "line2": "2 44622  98.0284 299.5160 0007527  26.7512 333.4088 14.82809676335525"}}, "geometry": {"type": "Point", "coordinates": [-50.81116169835215, -48.586395273883674]}}]}